NORAD_CAT_ID,OBJECT_NAME,OBJECT_TYPE,EPOCH,MEAN_MOTION,ECCENTRICITY,INCLINATION,RA_OF_ASC_NODE,ARG_OF_PERICENTER,MEAN_ANOMALY,BSTAR,MEAN_MOTION_DOT,MEAN_MOTION_DDOT,TLE_LINE0,TLE_LINE1,TLE_LINE2,SEMIMAJOR_AXIS,PERIOD,APOGEE,PERIGEE,DECAYED
53994.0,STARLINK-5125,PAYLOAD,2023-10-18 09:02:17,15.08840454,0.0001495,53.2158,174.4558,76.7265,283.3894,-5.8287e-05,-1.216e-05,0.0,0 STARLINK-5125,1 53994U 22125AG  23291.37659132 -.00001216  00000-0 -58287-4 0  9991,2 53994  53.2158 174.4558 0001495  76.7265 283.3894 15.08840454 57628,6917.879,95.438,540.778,538.71,0.0
53994.0,STARLINK-5125,PAYLOAD,2023-10-19 02:31:31,15.08850818,0.0001351,53.2166,171.1839,80.3673,279.7471,0.00022189,3.246e-05,0.0,0 STARLINK-5125,1 53994U 22125AG  23292.10522246  .00003246  00000-0  22189-3 0  9992,2 53994  53.2166 171.1839 0001351  80.3673 279.7471 15.08850818 57803,6917.847,95.437,540.647,538.778,0.0
53994.0,STARLINK-5125,PAYLOAD,2023-10-19 15:14:36,15.08841529,0.0001423,53.2153,168.8048,92.6842,267.4313,8.5414e-05,1.072e-05,0.0,0 STARLINK-5125,1 53994U 22125AG  23292.63514857  .00001072  00000-0  85414-4 0  9995,2 53994  53.2153 168.8048 0001423  92.6842 267.4313 15.08841529 57817,6917.876,95.437,540.725,538.756,0.0
53994.0,STARLINK-5125,PAYLOAD,2023-10-19 20:00:45,15.08853751,0.0001361,53.2152,167.9134,90.0411,270.0737,0.00028872,4.312e-05,0.0,0 STARLINK-5125,1 53994U 22125AG  23292.83386326  .00004312  00000-0  28872-3 0  9999,2 53994  53.2152 167.9134 0001361  90.0411 270.0737 15.08853751 57918,6917.838,95.437,540.645,538.762,0.0
53994.0,STARLINK-5125,PAYLOAD,2023-10-19 21:36:08,15.0885769,0.000134,53.2149,167.616,90.7057,269.4088,0.00038949,5.919e-05,0.0,0 STARLINK-5125,1 53994U 22125AG  23292.90010186  .00005919  00000-0  38949-3 0  9995,2 53994  53.2149 167.6160 0001340  90.7057 269.4088 15.08857690 57850,6917.826,95.436,540.618,538.764,0.0
53994.0,STARLINK-5125,PAYLOAD,2023-10-20 10:19:14,15.08822423,0.0001221,53.2143,165.2374,94.3199,265.7933,-0.0006531,-0.00010662,0.0,0 STARLINK-5125,1 53994U 22125AG  23293.43002700 -.00010662  00000-0 -65310-3 0  9992,2 53994  53.2143 165.2374 0001221  94.3199 265.7933 15.08822423 58002,6917.934,95.439,540.644,538.954,0.0
53994.0,STARLINK-5125,PAYLOAD,2023-10-20 15:05:23,15.08825967,0.0001425,53.2142,164.3451,105.6685,254.4464,0.00022975,3.369e-05,0.0,0 STARLINK-5125,1 53994U 22125AG  23293.62874928  .00003369  00000-0  22975-3 0  9996,2 53994  53.2142 164.3451 0001425 105.6685 254.4464 15.08825967 57963,6917.923,95.438,540.774,538.802,0.0
53994.0,STARLINK-5125,PAYLOAD,2023-10-20 21:26:56,15.08824168,0.0001346,53.2142,163.1562,89.2266,270.888,0.0011203,0.00017579,0.0,0 STARLINK-5125,1 53994U 22125AG  23293.89371425  .00017579  00000-0  11203-2 0  9998,2 53994  53.2142 163.1562 0001346  89.2266 270.8880 15.08824168 58009,6917.929,95.439,540.725,538.863,0.0
53994.0,STARLINK-5125,PAYLOAD,2023-10-21 00:37:43,15.08826899,0.0001359,53.2143,162.5615,87.5438,272.571,0.0014433,0.00022748,0.0,0 STARLINK-5125,1 53994U 22125AG  23294.02619581  .00022748  00000-0  14433-2 0  9994,2 53994  53.2143 162.5615 0001359  87.5438 272.5710 15.08826899 58091,6917.92,95.438,540.726,538.845,0.0
53994.0,STARLINK-5125,PAYLOAD,2023-10-21 08:34:39,15.08838447,0.0001373,53.2144,161.0741,88.4771,271.6378,0.0012046,0.00018934,0.0,0 STARLINK-5125,1 53994U 22125AG  23294.35739652  .00018934  00000-0  12046-2 0  9992,2 53994  53.2144 161.0741 0001373  88.4771 271.6378 15.08838447 58072,6917.885,95.438,540.7,538.8,0.0
53994.0,STARLINK-5125,PAYLOAD,2023-10-21 22:53:06,15.0886709,0.0001391,53.2146,158.3985,84.928,275.1871,0.0011738,0.00018456,0.0,0 STARLINK-5125,1 53994U 22125AG  23294.95354941  .00018456  00000-0  11738-2 0  9998,2 53994  53.2146 158.3985 0001391  84.9280 275.1871 15.08867090 58162,6917.798,95.436,540.625,538.7,0.0
53994.0,STARLINK-5125,PAYLOAD,2023-10-22 21:08:31,15.08831635,0.0001343,53.2153,154.2353,134.4662,225.644,0.0010198,0.00015976,0.0,0 STARLINK-5125,1 53994U 22125AG  23295.88091829  .00015976  00000-0  10198-2 0  9997,2 53994  53.2153 154.2353 0001343 134.4662 225.6440 15.08831635 58300,6917.906,95.438,540.7,538.842,0.0
53994.0,STARLINK-5125,PAYLOAD,2023-10-23 01:54:41,15.08824788,0.0001471,53.2151,153.3427,101.2426,258.8731,0.00026311,3.9e-05,0.0,0 STARLINK-5125,1 53994U 22125AG  23296.07964187  .00003900  00000-0  26311-3 0  9994,2 53994  53.2151 153.3427 0001471 101.2426 258.8731 15.08824788 58405,6917.927,95.439,540.81,538.774,0.0
53994.0,STARLINK-5125,PAYLOAD,2023-10-23 20:59:19,15.0883571,0.0001358,53.2153,149.7743,102.8957,257.2186,0.00099568,0.00015592,0.0,0 STARLINK-5125,1 53994U 22125AG  23296.87453271  .00015592  00000-0  99568-3 0  9993,2 53994  53.2153 149.7743 0001358 102.8957 257.2186 15.08835710 58456,6917.894,95.438,540.698,538.819,0.0
53994.0,STARLINK-5125,PAYLOAD,2023-10-25 06:22:24,15.08858681,0.0001272,53.2151,143.5292,101.4691,258.6444,0.0004361,6.663e-05,0.0,0 STARLINK-5125,1 53994U 22125AG  23298.26556248  .00006663  00000-0  43610-3 0  9992,2 53994  53.2151 143.5292 0001272 101.4691 258.6444 15.08858681 58735,6917.823,95.436,540.568,538.808,0.0
53994.0,STARLINK-5125,PAYLOAD,2023-10-26 06:13:11,15.08852529,0.0001299,53.2157,139.0698,99.1023,261.0116,0.00013635,1.883e-05,0.0,0 STARLINK-5125,1 53994U 22125AG  23299.25915736  .00001883  00000-0  13635-3 0  9996,2 53994  53.2157 139.0698 0001299  99.1023 261.0116 15.08852529 58887,6917.842,95.437,540.606,538.808,0.0
53994.0,STARLINK-5125,PAYLOAD,2023-10-26 20:31:39,15.08852239,0.0001373,53.2157,136.3927,96.3241,263.7907,5.9809e-05,6.64e-06,0.0,0 STARLINK-5125,1 53994U 22125AG  23299.85531466  .00000664  00000-0  59809-4 0  9996,2 53994  53.2157 136.3927 0001373  96.3241 263.7907 15.08852239 58904,6917.843,95.437,540.658,538.758,0.0
53994.0,STARLINK-5125,PAYLOAD,2023-10-27 12:25:30,15.08844392,0.000144,53.2159,133.42,91.9233,268.1924,2.06e-05,4e-07,0.0,0 STARLINK-5125,1 53994U 22125AG  23300.51771498  .00000040  00000-0  20600-4 0  9998,2 53994  53.2159 133.4200 0001440  91.9233 268.1924 15.08844392 59073,6917.867,95.437,540.728,538.736,0.0
53994.0,STARLINK-5125,PAYLOAD,2023-10-27 21:57:49,15.08843376,0.000149,53.216,131.6355,94.75,265.3663,2.2502e-05,7e-07,0.0,0 STARLINK-5125,1 53994U 22125AG  23300.91515610  .00000070  00000-0  22502-4 0  9990,2 53994  53.2160 131.6355 0001490  94.7500 265.3663 15.08843376 59068,6917.87,95.437,540.766,538.704,0.0
53994.0,STARLINK-5125,PAYLOAD,2023-10-28 05:54:45,15.08838493,0.0001447,53.2163,130.1489,90.8427,269.2731,-2.939e-05,-7.56e-06,0.0,0 STARLINK-5125,1 53994U 22125AG  23301.24635834 -.00000756  00000-0 -29390-4 0  9993,2 53994  53.2163 130.1489 0001447  90.8427 269.2731 15.08838493 59186,6917.885,95.438,540.751,538.749,0.0
53994.0,STARLINK-5125,PAYLOAD,2023-10-28 12:16:17,15.0883802,0.0001418,53.2155,128.959,88.2421,271.8734,1.7157e-05,-1.5e-07,0.0,0 STARLINK-5125,1 53994U 22125AG  23301.51131900 -.00000015  00000-0  17157-4 0  9993,2 53994  53.2155 128.9590 0001418  88.2421 271.8734 15.08838020 59153,6917.886,95.438,540.732,538.77,0.0
53994.0,STARLINK-5125,PAYLOAD,2023-10-28 21:48:36,15.08836565,0.0001376,53.2157,127.174,98.903,261.2118,0.00016844,2.394e-05,0.0,0 STARLINK-5125,1 53994U 22125AG  23301.90876008  .00002394  00000-0  16844-3 0  9993,2 53994  53.2157 127.1740 0001376  98.9030 261.2118 15.08836565 59218,6917.891,95.438,540.708,538.804,0.0
53994.0,STARLINK-5125,PAYLOAD,2023-10-29 12:07:04,15.08845352,0.0001308,53.2156,124.4977,88.7465,271.3677,0.00012798,1.75e-05,0.0,0 STARLINK-5125,1 53994U 22125AG  23302.50491516  .00001750  00000-0  12798-3 0  9996,2 53994  53.2156 124.4977 0001308  88.7465 271.3677 15.08845352 59376,6917.864,95.437,540.634,538.824,0.0
53994.0,STARLINK-5125,PAYLOAD,2023-10-29 21:39:23,15.088505,0.0001335,53.2143,122.713,88.6443,271.4702,0.00023641,3.478e-05,0.0,0 STARLINK-5125,1 53994U 22125AG  23302.90235290  .00003478  00000-0  23641-3 0  9993,2 53994  53.2143 122.7130 0001335  88.6443 271.4702 15.08850500 59369,6917.848,95.437,540.637,538.79,0.0
53994.0,STARLINK-5125,PAYLOAD,2023-10-30 18:19:24,15.08838674,0.0001229,53.2146,118.847,90.4196,269.6936,0.00010417,1.37e-05,0.0,0 STARLINK-5125,1 53994U 22125AG  23303.76348034  .00001370  00000-0  10417-3 0  9995,2 53994  53.2146 118.8470 0001229  90.4196 269.6936 15.08838674 59561,6917.884,95.438,540.6,538.899,0.0
53994.0,STARLINK-5125,PAYLOAD,2023-10-30 21:30:10,15.08840831,0.0001224,53.2148,118.2522,89.1773,270.9359,9.599e-05,1.24e-05,0.0,0 STARLINK-5125,1 53994U 22125AG  23303.89595956  .00001240  00000-0  95990-4 0  9992,2 53994  53.2148 118.2522 0001224  89.1773 270.9359 15.08840831 59513,6917.878,95.438,540.59,538.896,0.0
53994.0,STARLINK-5125,PAYLOAD,2023-10-31 14:59:25,15.08839368,0.0001295,53.2152,114.9793,95.0089,265.1051,4.786e-05,4.74e-06,0.0,0 STARLINK-5125,1 53994U 22125AG  23304.62460144  .00000474  00000-0  47860-4 0  9995,2 53994  53.2152 114.9793 0001295  95.0089 265.1051 15.08839368 59625,6917.882,95.438,540.643,538.851,0.0
53994.0,STARLINK-5125,PAYLOAD,2023-10-31 21:20:57,15.08843565,0.0001243,53.2151,113.7908,91.4866,268.6268,8.3839e-05,1.047e-05,0.0,0 STARLINK-5125,1 53994U 22125AG  23304.88955937  .00001047  00000-0  83839-4 0  9995,2 53994  53.2151 113.7908 0001243  91.4866 268.6268 15.08843565 59661,6917.869,95.437,540.594,538.875,0.0
53994.0,STARLINK-5125,PAYLOAD,2023-11-01 14:50:12,15.08840827,0.0001262,53.2157,110.5189,92.833,267.2806,0.00013008,1.783e-05,0.0,0 STARLINK-5125,1 53994U 22125AG  23305.61820153  .00001783  00000-0  13008-3 0  9995,2 53994  53.2157 110.5189 0001262  92.8330 267.2806 15.08840827 59778,6917.878,95.438,540.616,538.87,0.0
53994.0,STARLINK-5125,PAYLOAD,2023-11-01 21:11:44,15.08861264,0.0001483,53.216,109.3282,105.1716,254.944,0.00045458,6.958e-05,0.0,0 STARLINK-5125,1 53994U 22125AG  23305.88315171  .00006958  00000-0  45458-3 0  9996,2 53994  53.2160 109.3282 0001483 105.1716 254.9440 15.08861264 59813,6917.815,95.436,540.706,538.654,0.0
